AL MUNTHER              
1 63240U 25052AG  26068.64540749  .00017933  00000+0  65015-3 0  9992
2 63240  97.4001 323.9152 0008027 130.7043 229.4895 15.28381521 54798
STARLINK-35451          
1 66469U 25262P   26067.99182586  .00027406  00000+0  10013-2 0  9992
2 66469  42.9992 299.7605 0002217 233.6066 126.4581 15.27592848 18809
